CCSDS_OMM_VERS = 2.0
CREATION_DATE  = 
ORIGINATOR     = 

OBJECT_NAME    = STARLINK-36874
OBJECT_ID      = 2026-038W
CENTER_NAME    = EARTH
REF_FRAME      = TEME
TIME_SYSTEM    = UTC
MEAN_ELEMENT_THEORY = SGP/SGP4

EPOCH          = 2026-03-14T06:00:02.000160
MEAN_MOTION    = 15.75192792
ECCENTRICITY   = .00010769
INCLINATION    = 97.2771
RA_OF_ASC_NODE = 83.8293
ARG_OF_PERICENTER = 89.0400
MEAN_ANOMALY   = 80.7210

EPHEMERIS_TYPE = 0
CLASSIFICATION_TYPE = U
NORAD_CAT_ID   = 67981
ELEMENT_SET_NO = 999
REV_AT_EPOCH   = 393
BSTAR          = .26331792E-3
MEAN_MOTION_DOT = .39331E-3
MEAN_MOTION_DDOT = 0

CCSDS_OMM_VERS = 2.0
CREATION_DATE  = 
ORIGINATOR     = 

OBJECT_NAME    = STARLINK-36879
OBJECT_ID      = 2026-038X
CENTER_NAME    = EARTH
REF_FRAME      = TEME
TIME_SYSTEM    = UTC
MEAN_ELEMENT_THEORY = SGP/SGP4

EPOCH          = 2026-03-14T06:00:02.000160
MEAN_MOTION    = 15.74206971
ECCENTRICITY   = .00017927
INCLINATION    = 97.2749
RA_OF_ASC_NODE = 83.8315
ARG_OF_PERICENTER = 78.4954
MEAN_ANOMALY   = 98.9497

EPHEMERIS_TYPE = 0
CLASSIFICATION_TYPE = U
NORAD_CAT_ID   = 67982
ELEMENT_SET_NO = 999
REV_AT_EPOCH   = 393
BSTAR          = -.18948091E-1
MEAN_MOTION_DOT = -.2341939E-1
MEAN_MOTION_DDOT = 0

CCSDS_OMM_VERS = 2.0
CREATION_DATE  = 
ORIGINATOR     = 

OBJECT_NAME    = STARLINK-36867
OBJECT_ID      = 2026-038Y
CENTER_NAME    = EARTH
REF_FRAME      = TEME
TIME_SYSTEM    = UTC
MEAN_ELEMENT_THEORY = SGP/SGP4

EPOCH          = 2026-03-14T06:00:02.000160
MEAN_MOTION    = 15.75224568
ECCENTRICITY   = .00012436
INCLINATION    = 97.2749
RA_OF_ASC_NODE = 83.8378
ARG_OF_PERICENTER = 108.3370
MEAN_ANOMALY   = 85.4739

EPHEMERIS_TYPE = 0
CLASSIFICATION_TYPE = U
NORAD_CAT_ID   = 67983
ELEMENT_SET_NO = 999
REV_AT_EPOCH   = 393
BSTAR          = -.96728808E-3
MEAN_MOTION_DOT = -.142243E-2
MEAN_MOTION_DDOT = 0

CCSDS_OMM_VERS = 2.0
CREATION_DATE  = 
ORIGINATOR     = 

OBJECT_NAME    = STARLINK-36266
OBJECT_ID      = 2026-038Z
CENTER_NAME    = EARTH
REF_FRAME      = TEME
TIME_SYSTEM    = UTC
MEAN_ELEMENT_THEORY = SGP/SGP4

EPOCH          = 2026-03-14T06:00:02.000160
MEAN_MOTION    = 15.75189031
ECCENTRICITY   = .00006474
INCLINATION    = 97.2764
RA_OF_ASC_NODE = 83.8358
ARG_OF_PERICENTER = 126.5701
MEAN_ANOMALY   = 59.1993

EPHEMERIS_TYPE = 0
CLASSIFICATION_TYPE = U
NORAD_CAT_ID   = 67984
ELEMENT_SET_NO = 999
REV_AT_EPOCH   = 390
BSTAR          = .23429012E-3
MEAN_MOTION_DOT = .34957E-3
MEAN_MOTION_DDOT = 0

CCSDS_OMM_VERS = 2.0
CREATION_DATE  = 
ORIGINATOR     = 

OBJECT_NAME    = STARLINK-36802
OBJECT_ID      = 2026-038AA
CENTER_NAME    = EARTH
REF_FRAME      = TEME
TIME_SYSTEM    = UTC
MEAN_ELEMENT_THEORY = SGP/SGP4

EPOCH          = 2026-03-14T06:00:02.000160
MEAN_MOTION    = 15.75216066
ECCENTRICITY   = .00012629
INCLINATION    = 97.2735
RA_OF_ASC_NODE = 83.8402
ARG_OF_PERICENTER = 89.2239
MEAN_ANOMALY   = 110.5916

EPHEMERIS_TYPE = 0
CLASSIFICATION_TYPE = U
NORAD_CAT_ID   = 67985
ELEMENT_SET_NO = 999
REV_AT_EPOCH   = 393
BSTAR          = -.6425814E-3
MEAN_MOTION_DOT = -.95022E-3
MEAN_MOTION_DDOT = 0

CCSDS_OMM_VERS = 2.0
CREATION_DATE  = 
ORIGINATOR     = 

OBJECT_NAME    = STARLINK-36535
OBJECT_ID      = 2026-039A
CENTER_NAME    = EARTH
REF_FRAME      = TEME
TIME_SYSTEM    = UTC
MEAN_ELEMENT_THEORY = SGP/SGP4

EPOCH          = 2026-03-14T02:25:35.284512
MEAN_MOTION    = 15.82022797
ECCENTRICITY   = .00016845
INCLINATION    = 42.9995
RA_OF_ASC_NODE = 27.9030
ARG_OF_PERICENTER = 286.0888
MEAN_ANOMALY   = 73.9798

EPHEMERIS_TYPE = 0
CLASSIFICATION_TYPE = U
NORAD_CAT_ID   = 67986
ELEMENT_SET_NO = 999
REV_AT_EPOCH   = 233
BSTAR          = .17714432E-2
MEAN_MOTION_DOT = .389893E-2
MEAN_MOTION_DDOT = 0

CCSDS_OMM_VERS = 2.0
CREATION_DATE  = 
ORIGINATOR     = 

OBJECT_NAME    = STARLINK-36744
OBJECT_ID      = 2026-039B
CENTER_NAME    = EARTH
REF_FRAME      = TEME
TIME_SYSTEM    = UTC
MEAN_ELEMENT_THEORY = SGP/SGP4

EPOCH          = 2026-03-13T21:51:45.851040
MEAN_MOTION    = 15.82394934
ECCENTRICITY   = .00026348
INCLINATION    = 42.9986
RA_OF_ASC_NODE = 29.0570
ARG_OF_PERICENTER = 215.8267
MEAN_ANOMALY   = 144.2428

EPHEMERIS_TYPE = 0
CLASSIFICATION_TYPE = U
NORAD_CAT_ID   = 67987
ELEMENT_SET_NO = 999
REV_AT_EPOCH   = 230
BSTAR          = .34382731E-2
MEAN_MOTION_DOT = .809399E-2
MEAN_MOTION_DDOT = 0

CCSDS_OMM_VERS = 2.0
CREATION_DATE  = 
ORIGINATOR     = 

OBJECT_NAME    = STARLINK-36734
OBJECT_ID      = 2026-039C
CENTER_NAME    = EARTH
REF_FRAME      = TEME
TIME_SYSTEM    = UTC
MEAN_ELEMENT_THEORY = SGP/SGP4

EPOCH          = 2026-03-14T06:00:02.000160
MEAN_MOTION    = 15.66684553
ECCENTRICITY   = .00013402
INCLINATION    = 42.9997
RA_OF_ASC_NODE = 27.2226
ARG_OF_PERICENTER = 272.1257
MEAN_ANOMALY   = 124.6430

EPHEMERIS_TYPE = 0
CLASSIFICATION_TYPE = U
NORAD_CAT_ID   = 67988
ELEMENT_SET_NO = 999
REV_AT_EPOCH   = 361
BSTAR          = -.19959246E-1
MEAN_MOTION_DOT = -.1910843E-1
MEAN_MOTION_DDOT = 0

CCSDS_OMM_VERS = 2.0
CREATION_DATE  = 
ORIGINATOR     = 

OBJECT_NAME    = STARLINK-36957
OBJECT_ID      = 2026-039D
CENTER_NAME    = EARTH
REF_FRAME      = TEME
TIME_SYSTEM    = UTC
MEAN_ELEMENT_THEORY = SGP/SGP4

EPOCH          = 2026-03-14T05:24:10.205568
MEAN_MOTION    = 15.82122218
ECCENTRICITY   = .0001828
INCLINATION    = 42.9988
RA_OF_ASC_NODE = 27.1092
ARG_OF_PERICENTER = 269.9569
MEAN_ANOMALY   = 90.1094

EPHEMERIS_TYPE = 0
CLASSIFICATION_TYPE = U
NORAD_CAT_ID   = 67989
ELEMENT_SET_NO = 999
REV_AT_EPOCH   = 235
BSTAR          = .16617594E-2
MEAN_MOTION_DOT = .366409E-2
MEAN_MOTION_DDOT = 0

CCSDS_OMM_VERS = 2.0
CREATION_DATE  = 
ORIGINATOR     = 

OBJECT_NAME    = STARLINK-36951
OBJECT_ID      = 2026-039E
CENTER_NAME    = EARTH
REF_FRAME      = TEME
TIME_SYSTEM    = UTC
MEAN_ELEMENT_THEORY = SGP/SGP4

EPOCH          = 2026-03-13T21:48:40.227552
MEAN_MOTION    = 15.81141750
ECCENTRICITY   = .00025699
INCLINATION    = 42.9990
RA_OF_ASC_NODE = 29.0384
ARG_OF_PERICENTER = 187.4316
MEAN_ANOMALY   = 172.6517

EPHEMERIS_TYPE = 0
CLASSIFICATION_TYPE = U
NORAD_CAT_ID   = 67990
ELEMENT_SET_NO = 999
REV_AT_EPOCH   = 230
BSTAR          = -.10415952E-2
MEAN_MOTION_DOT = -.206199E-2
MEAN_MOTION_DDOT = 0

CCSDS_OMM_VERS = 2.0
CREATION_DATE  = 
ORIGINATOR     = 

OBJECT_NAME    = STARLINK-36941
OBJECT_ID      = 2026-039F
CENTER_NAME    = EARTH
REF_FRAME      = TEME
TIME_SYSTEM    = UTC
MEAN_ELEMENT_THEORY = SGP/SGP4

EPOCH          = 2026-03-14T06:00:02.000160
MEAN_MOTION    = 15.66337541
ECCENTRICITY   = .0001274
INCLINATION    = 42.9997
RA_OF_ASC_NODE = 27.2005
ARG_OF_PERICENTER = 271.4760
MEAN_ANOMALY   = 133.4833

EPHEMERIS_TYPE = 0
CLASSIFICATION_TYPE = U
NORAD_CAT_ID   = 67991
ELEMENT_SET_NO = 999
REV_AT_EPOCH   = 361
BSTAR          = -.20257429E-1
MEAN_MOTION_DOT = -.1911889E-1
MEAN_MOTION_DDOT = 0

CCSDS_OMM_VERS = 2.0
CREATION_DATE  = 
ORIGINATOR     = 

OBJECT_NAME    = STARLINK-36950
OBJECT_ID      = 2026-039G
CENTER_NAME    = EARTH
REF_FRAME      = TEME
TIME_SYSTEM    = UTC
MEAN_ELEMENT_THEORY = SGP/SGP4

EPOCH          = 2026-03-14T06:00:02.000160
MEAN_MOTION    = 15.71823203
ECCENTRICITY   = .00012005
INCLINATION    = 42.9991
RA_OF_ASC_NODE = 27.0377
ARG_OF_PERICENTER = 282.3704
MEAN_ANOMALY   = 187.9159

EPHEMERIS_TYPE = 0
CLASSIFICATION_TYPE = U
NORAD_CAT_ID   = 67992
ELEMENT_SET_NO = 999
REV_AT_EPOCH   = 361
BSTAR          = -.16136782E-1
MEAN_MOTION_DOT = -.191511E-1
MEAN_MOTION_DDOT = 0

