STARLINK-36874          
1 67981U 26038W   26073.25002315  .00039331  00000+0  26332-3 0  9993
2 67981  97.2771  83.8293 0001076  89.0400  80.7210 15.75192792  3935
STARLINK-36879          
1 67982U 26038X   26073.25002315 -.02341939  00000+0 -18948-1 0  9990
2 67982  97.2749  83.8315 0001792  78.4954  98.9497 15.74206971  3939
STARLINK-36867          
1 67983U 26038Y   26073.25002315 -.00142243  00000+0 -96729-3 0  9991
2 67983  97.2749  83.8378 0001243 108.3370  85.4739 15.75224568  3938
STARLINK-36266          
1 67984U 26038Z   26073.25002315  .00034957  00000+0  23429-3 0  9999
2 67984  97.2764  83.8358 0000647 126.5701  59.1993 15.75189031  3903
STARLINK-36802          
1 67985U 26038AA  26073.25002315 -.00095022  00000+0 -64258-3 0  9997
2 67985  97.2735  83.8402 0001262  89.2239 110.5916 15.75216066  3936
STARLINK-36535          
1 67986U 26039A   26073.10110283  .00389893  00000+0  17714-2 0  9991
2 67986  42.9995  27.9030 0001684 286.0888  73.9798 15.82022797  2330
STARLINK-36744          
1 67987U 26039B   26072.91094735  .00809399  00000+0  34383-2 0  9992
2 67987  42.9986  29.0570 0002634 215.8267 144.2428 15.82394934  2304
STARLINK-36734          
1 67988U 26039C   26073.25002315 -.01910843  00000+0 -19959-1 0  9995
2 67988  42.9997  27.2226 0001340 272.1257 124.6430 15.66684553  3614
STARLINK-36957          
1 67989U 26039D   26073.22511812  .00366409  00000+0  16618-2 0  9990
2 67989  42.9988  27.1092 0001828 269.9569  90.1094 15.82122218  2352
STARLINK-36951          
1 67990U 26039E   26072.90879893 -.00206199  00000+0 -10416-2 0  9993
2 67990  42.9990  29.0384 0002569 187.4316 172.6517 15.81141750  2301
STARLINK-36941          
1 67991U 26039F   26073.25002315 -.01911889  00000+0 -20257-1 0  9993
2 67991  42.9997  27.2005 0001274 271.4760 133.4833 15.66337541  3617
STARLINK-36950          
1 67992U 26039G   26073.25002315 -.01915110  00000+0 -16137-1 0  9997
2 67992  42.9991  27.0377 0001200 282.3704 187.9159 15.71823203  3616
